{
  "type": "FeatureCollection",
  "features": [
    {
      "type": "Feature",
      "properties": {
        "norad_id": 66579,
        "name": "STARLINK-35868",
        "group": "last-30-days",
        "lat": 18.021120098291473,
        "lon": 173.32893567865736,
        "alt_km": 388.26635604617513,
        "timestamp": "2025-12-07T07:31:35.086619+00:00",
        "meta_object_name": "STARLINK-35868",
        "meta_object_id": "2025-268Y",
        "meta_epoch": "2025-12-06T22:00:01.999584",
        "meta_mean_motion": 15.60628559,
        "meta_eccentricity": 0.00017184,
        "meta_inclination": 42.9996,
        "meta_ra_of_asc_node": 155.2494,
        "meta_arg_of_pericenter": 272.2539,
        "meta_mean_anomaly": 43.3634,
        "meta_ephemeris_type": 0,
        "meta_classification_type": "U",
        "meta_norad_cat_id": 66579,
        "meta_element_set_no": 999,
        "meta_rev_at_epoch": 373,
        "meta_bstar": -0.025836523,
        "meta_mean_motion_dot": -0.01939036,
        "meta_mean_motion_ddot": 0,
        "tle_line1": "1 66579U 25268Y   25340.91668981 -.01939036  00000+0 -25837-1 0  9996",
        "tle_line2": "2 66579  42.9996 155.2494 0001718 272.2539  43.3634 15.60628559  3734"
      },
      "geometry": {
        "type": "Point",
        "coordinates": [
          173.32893567865736,
          18.021120098291473
        ]
      }
    },
    {
      "type": "Feature",
      "properties": {
        "norad_id": 66580,
        "name": "STARLINK-35872",
        "group": "last-30-days",
        "lat": 19.239797228767546,
        "lon": 174.88718830977095,
        "alt_km": 388.0780168612737,
        "timestamp": "2025-12-07T07:31:35.086629+00:00",
        "meta_object_name": "STARLINK-35872",
        "meta_object_id": "2025-268Z",
        "meta_epoch": "2025-12-06T22:00:01.999584",
        "meta_mean_motion": 15.60633191,
        "meta_eccentricity": 0.00016358,
        "meta_inclination": 42.9995,
        "meta_ra_of_asc_node": 155.2451,
        "meta_arg_of_pericenter": 272.6429,
        "meta_mean_anomaly": 44.8873,
        "meta_ephemeris_type": 0,
        "meta_classification_type": "U",
        "meta_norad_cat_id": 66580,
        "meta_element_set_no": 999,
        "meta_rev_at_epoch": 373,
        "meta_bstar": -0.025880895,
        "meta_mean_motion_dot": -0.01942217,
        "meta_mean_motion_ddot": 0,
        "tle_line1": "1 66580U 25268Z   25340.91668981 -.01942217  00000+0 -25881-1 0  9992",
        "tle_line2": "2 66580  42.9995 155.2451 0001635 272.6429  44.8873 15.60633191  3737"
      },
      "geometry": {
        "type": "Point",
        "coordinates": [
          174.88718830977095,
          19.239797228767546
        ]
      }
    },
    {
      "type": "Feature",
      "properties": {
        "norad_id": 66581,
        "name": "STARLINK-35744",
        "group": "last-30-days",
        "lat": 20.446210299810105,
        "lon": 176.46892476570127,
        "alt_km": 387.93112319220745,
        "timestamp": "2025-12-07T07:31:35.086639+00:00",
        "meta_object_name": "STARLINK-35744",
        "meta_object_id": "2025-268AA",
        "meta_epoch": "2025-12-06T22:00:01.999584",
        "meta_mean_motion": 15.60627777,
        "meta_eccentricity": 0.00017018,
        "meta_inclination": 42.9995,
        "meta_ra_of_asc_node": 155.2395,
        "meta_arg_of_pericenter": 273.7153,
        "meta_mean_anomaly": 45.7385,
        "meta_ephemeris_type": 0,
        "meta_classification_type": "U",
        "meta_norad_cat_id": 66581,
        "meta_element_set_no": 999,
        "meta_rev_at_epoch": 368,
        "meta_bstar": -0.025852711,
        "meta_mean_motion_dot": -0.01940042,
        "meta_mean_motion_ddot": 0,
        "tle_line1": "1 66581U 25268AA  25340.91668981 -.01940042  00000+0 -25853-1 0  9996",
        "tle_line2": "2 66581  42.9995 155.2395 0001701 273.7153  45.7385 15.60627777  3680"
      },
      "geometry": {
        "type": "Point",
        "coordinates": [
          176.46892476570127,
          20.446210299810105
        ]
      }
    },
    {
      "type": "Feature",
      "properties": {
        "norad_id": 66582,
        "name": "STARLINK-35746",
        "group": "last-30-days",
        "lat": 21.637224082869434,
        "lon": 178.0750569876614,
        "alt_km": 387.76219391105224,
        "timestamp": "2025-12-07T07:31:35.086651+00:00",
        "meta_object_name": "STARLINK-35746",
        "meta_object_id": "2025-268AB",
        "meta_epoch": "2025-12-06T22:00:01.999584",
        "meta_mean_motion": 15.60628699,
        "meta_eccentricity": 0.00016351,
        "meta_inclination": 42.9997,
        "meta_ra_of_asc_node": 155.2346,
        "meta_arg_of_pericenter": 273.562,
        "meta_mean_anomaly": 47.8079,
        "meta_ephemeris_type": 0,
        "meta_classification_type": "U",
        "meta_norad_cat_id": 66582,
        "meta_element_set_no": 999,
        "meta_rev_at_epoch": 373,
        "meta_bstar": -0.025849441,
        "meta_mean_motion_dot": -0.01939839,
        "meta_mean_motion_ddot": 0,
        "tle_line1": "1 66582U 25268AB  25340.91668981 -.01939839  00000+0 -25849-1 0  9994",
        "tle_line2": "2 66582  42.9997 155.2346 0001635 273.5620  47.8079 15.60628699  3735"
      },
      "geometry": {
        "type": "Point",
        "coordinates": [
          178.0750569876614,
          21.637224082869434
        ]
      }
    },
    {
      "type": "Feature",
      "properties": {
        "norad_id": 66583,
        "name": "STARLINK-35941",
        "group": "last-30-days",
        "lat": 22.812066320335045,
        "lon": 179.7076203236089,
        "alt_km": 387.7179677579943,
        "timestamp": "2025-12-07T07:31:35.086661+00:00",
        "meta_object_name": "STARLINK-35941",
        "meta_object_id": "2025-268AC",
        "meta_epoch": "2025-12-06T22:00:01.999584",
        "meta_mean_motion": 15.60629747,
        "meta_eccentricity": 0.00016903,
        "meta_inclination": 42.9996,
        "meta_ra_of_asc_node": 155.2298,
        "meta_arg_of_pericenter": 269.8431,
        "meta_mean_anomaly": 53.4415,
        "meta_ephemeris_type": 0,
        "meta_classification_type": "U",
        "meta_norad_cat_id": 66583,
        "meta_element_set_no": 999,
        "meta_rev_at_epoch": 373,
        "meta_bstar": -0.025839795,
        "meta_mean_motion_dot": -0.01939311,
        "meta_mean_motion_ddot": 0,
        "tle_line1": "1 66583U 25268AC  25340.91668981 -.01939311  00000+0 -25840-1 0  9991",
        "tle_line2": "2 66583  42.9996 155.2298 0001690 269.8431  53.4415 15.60629747  3732"
      },
      "geometry": {
        "type": "Point",
        "coordinates": [
          179.7076203236089,
          22.812066320335045
        ]
      }
    },
    {
      "type": "Feature",
      "properties": {
        "norad_id": 66584,
        "name": "STARLINK-35939",
        "group": "last-30-days",
        "lat": 23.971011776447494,
        "lon": -178.62948708116951,
        "alt_km": 387.52689570145685,
        "timestamp": "2025-12-07T07:31:35.086674+00:00",
        "meta_object_name": "STARLINK-35939",
        "meta_object_id": "2025-268AD",
        "meta_epoch": "2025-12-06T22:00:01.999584",
        "meta_mean_motion": 15.60626363,
        "meta_eccentricity": 0.00017669,
        "meta_inclination": 42.9996,
        "meta_ra_of_asc_node": 155.2255,
        "meta_arg_of_pericenter": 273.1119,
        "meta_mean_anomaly": 52.0929,
        "meta_ephemeris_type": 0,
        "meta_classification_type": "U",
        "meta_norad_cat_id": 66584,
        "meta_element_set_no": 999,
        "meta_rev_at_epoch": 373,
        "meta_bstar": -0.025815591,
        "meta_mean_motion_dot": -0.01937542,
        "meta_mean_motion_ddot": 0,
        "tle_line1": "1 66584U 25268AD  25340.91668981 -.01937542  00000+0 -25816-1 0  9999",
        "tle_line2": "2 66584  42.9996 155.2255 0001766 273.1119  52.0929 15.60626363  3737"
      },
      "geometry": {
        "type": "Point",
        "coordinates": [
          -178.62948708116951,
          23.971011776447494
        ]
      }
    },
    {
      "type": "Feature",
      "properties": {
        "norad_id": 66585,
        "name": "STARLINK-35963",
        "group": "last-30-days",
        "lat": 25.11142214808805,
        "lon": -176.93729921879955,
        "alt_km": 387.3106010661013,
        "timestamp": "2025-12-07T07:31:35.086684+00:00",
        "meta_object_name": "STARLINK-35963",
        "meta_object_id": "2025-268AE",
        "meta_epoch": "2025-12-06T22:00:01.999584",
        "meta_mean_motion": 15.60633263,
        "meta_eccentricity": 0.00016654,
        "meta_inclination": 42.9996,
        "meta_ra_of_asc_node": 155.2208,
        "meta_arg_of_pericenter": 274.7221,
        "meta_mean_anomaly": 52.3972,
        "meta_ephemeris_type": 0,
        "meta_classification_type": "U",
        "meta_norad_cat_id": 66585,
        "meta_element_set_no": 999,
        "meta_rev_at_epoch": 373,
        "meta_bstar": -0.025940391,
        "meta_mean_motion_dot": -0.01946173,
        "meta_mean_motion_ddot": 0,
        "tle_line1": "1 66585U 25268AE  25340.91668981 -.01946173  00000+0 -25940-1 0  9998",
        "tle_line2": "2 66585  42.9996 155.2208 0001665 274.7221  52.3972 15.60633263  3733"
      },
      "geometry": {
        "type": "Point",
        "coordinates": [
          -176.93729921879955,
          25.11142214808805
        ]
      }
    }
  ]
}